{"type": "FeatureCollection", "features": [{"type": "Feature", "geometry": {"type": "LineString", "coordinates": [[7.658116556347668, 45.06491673119521], [7.658397408449157, 45.06481852218542]]}, "properties": {"floor_id": "XPTE", "vert": 0}}, {"type": "Feature", "geometry": {"type": "LineString", "coordinates": [[7.658397408449157, 45.06481852218542], [7.658403302646772, 45.064826924650276]]}, "properties": {"floor_id": "XPTE", "vert": 0}}, {"type": "Feature", "geometry": {"type": "LineString", "coordinates": [[7.658403302646772, 45.064826924650276], [7.658407487728306, 45.064832890687185]]}, "properties": {"floor_id": "XPTE", "vert": 0}}, {"type": "Feature", "geometry": {"type": "LineString", "coordinates": [[7.658407487728306, 45.064832890687185], [7.658413175209008, 45.064830886812736]]}, "properties": {"floor_id": "XPTE", "vert": 0}}, {"type": "Feature", "geometry": {"type": "LineString", "coordinates": [[7.658413175209008, 45.064830886812736], [7.658514226607924, 45.06479528328242]]}, "properties": {"floor_id": "XPTE", "vert": 0}}, {"type": "Feature", "geometry": {"type": "LineString", "coordinates": [[7.658514226607924, 45.06479528328242], [7.658791838049166, 45.064697472079395]]}, "properties": {"floor_id": "XPTE", "vert": 0}}, {"type": "Feature", "geometry": {"type": "LineString", "coordinates": [[7.658791838049166, 45.064697472079395], [7.658805499932116, 45.06471649199973]]}, "properties": {"floor_id": "XPTE", "vert": 0}}, {"type": "Feature", "geometry": {"type": "LineString", "coordinates": [[7.658805499932116, 45.06471649199973], [7.658821527362408, 45.06473880520103]]}, "properties": {"floor_id": "XPTE", "vert": 0}}, {"type": "Feature", "geometry": {"type": "LineString", "coordinates": [[7.658821527362408, 45.06473880520103], [7.658872009399861, 45.064809085340016]]}, "properties": {"floor_id": "XPTE", "vert": 0}}, {"type": "Feature", "geometry": {"type": "LineString", "coordinates": [[7.658872009399861, 45.064809085340016], [7.65888129360655, 45.0648220106372]]}, "properties": {"floor_id": "XPTE", "vert": 0}}, {"type": "Feature", "geometry": {"type": "LineString", "coordinates": [[7.65888129360655, 45.0648220106372], [7.658909722703583, 45.06486158908909]]}, "properties": {"floor_id": "XPTE", "vert": 0}}, {"type": "Feature", "geometry": {"type": "LineString", "coordinates": [[7.658909722703583, 45.06486158908909], [7.658977106793854, 45.064955399946754]]}, "properties": {"floor_id": "XPTE", "vert": 0}}, {"type": "Feature", "geometry": {"type": "LineString", "coordinates": [[7.658977106793854, 45.064955399946754], [7.659032994528522, 45.065033205795295]]}, "properties": {"floor_id": "XPTE", "vert": 0}}, {"type": "Feature", "geometry": {"type": "LineString", "coordinates": [[7.659032994528522, 45.065033205795295], [7.659089646980726, 45.065112076269145]]}, "properties": {"floor_id": "XPTE", "vert": 0}}, {"type": "Feature", "geometry": {"type": "LineString", "coordinates": [[7.659089646980726, 45.065112076269145], [7.659143638738344, 45.06518724339824]]}, "properties": {"floor_id": "XPTE", "vert": 0}}, {"type": "Feature", "geometry": {"type": "LineString", "coordinates": [[7.659143638738344, 45.06518724339824], [7.659184776807855, 45.06524451421757]]}, "properties": {"floor_id": "XPTE", "vert": 0}}, {"type": "Feature", "geometry": {"type": "LineString", "coordinates": [[7.659184776807855, 45.06524451421757], [7.659228584747519, 45.06530550285727]]}, "properties": {"floor_id": "XPTE", "vert": 0}}, {"type": "Feature", "geometry": {"type": "LineString", "coordinates": [[7.659228584747519, 45.06530550285727], [7.659260276875002, 45.065294336836565]]}, "properties": {"floor_id": "XPTE", "vert": 0}}]}